CCSDS_OMM_VERS,COMMENT,CREATION_DATE,ORIGINATOR,OBJECT_NAME,OBJECT_ID,CENTER_NAME,REF_FRAME,TIME_SYSTEM,MEAN_ELEMENT_THEORY,EPOCH,MEAN_MOTION,ECCENTRICITY,INCLINATION,RA_OF_ASC_NODE,ARG_OF_PERICENTER,MEAN_ANOMALY,EPHEMERIS_TYPE,CLASSIFICATION_TYPE,NORAD_CAT_ID,ELEMENT_SET_NO,REV_AT_EPOCH,BSTAR,MEAN_MOTION_DOT,MEAN_MOTION_DDOT,SEMIMAJOR_AXIS,PERIOD,APOAPSIS,PERIAPSIS,OBJECT_TYPE,RCS_SIZE,COUNTRY_CODE,LAUNCH_DATE,SITE,DECAY_DATE,FILE,GP_ID,TLE_LINE0,TLE_LINE1,TLE_LINE2
2,GENERATED VIA SPACE-TRACK.ORG API,2014-12-04T19:34:11,18 SPCS,GALILEO-FM3,2012-055A,EARTH,TEME,UTC,SGP4,2014-12-04T00:58:01.705728,1.70473884,0.0001422,55.036,217.7493,197.6781,162.4111,0,U,38857,999,1334,0.0,2.8e-07,0,29600.333,844.704,23226.407,23217.989,PAYLOAD,LARGE,ESA,2012-10-12,FRGUI,,1788272,97694044,0 GALILEO-FM3,1 38857U 12055A   14338.04029752  .00000028  00000-0  00000+0 0  9991,2 38857 055.0360 217.7493 0001422 197.6781 162.4111 01.70473884 13342
2,GENERATED VIA SPACE-TRACK.ORG API,2014-12-12T06:25:57,18 SPCS,GALILEO-FM3,2012-055A,EARTH,TEME,UTC,SGP4,2014-12-11T15:58:52.046687,1.70473807,0.0001346,55.0339,217.5369,191.1911,168.897,0,U,38857,999,1347,0.0,2.8e-07,0,29600.342,844.704,23226.191,23218.222,PAYLOAD,LARGE,ESA,2012-10-12,FRGUI,,1792128,97762418,0 GALILEO-FM3,1 38857U 12055A   14345.66588017  .00000028  00000-0  00000+0 0  9991,2 38857 055.0339 217.5369 0001346 191.1911 168.8970 01.70473807 13479
2,GENERATED VIA SPACE-TRACK.ORG API,2014-12-11T19:29:02,18 SPCS,GALILEO-FM3,2012-055A,EARTH,TEME,UTC,SGP4,2014-12-11T15:58:52.652352,1.7047365,0.0001477,55.0338,217.5375,199.1793,160.9125,0,U,38857,999,1347,0.0001,5e-08,0,29600.36,844.705,23226.597,23217.853,PAYLOAD,LARGE,ESA,2012-10-12,FRGUI,,1791909,97758857,0 GALILEO-FM3,1 38857U 12055A   14345.66588718  .00000005  00000-0  10000-3 0  9999,2 38857 055.0338 217.5375 0001477 199.1793 160.9125 01.70473650 13477
2,GENERATED VIA SPACE-TRACK.ORG API,2014-12-19T06:27:52,18 SPCS,GALILEO-FM3,2012-055A,EARTH,TEME,UTC,SGP4,2014-12-18T02:50:22.432415,1.7047353,0.0001474,55.0325,217.3566,183.4153,176.6845,0,U,38857,999,1358,0.0,6.9e-07,0,29600.374,844.705,23226.602,23217.876,PAYLOAD,LARGE,ESA,2012-10-12,FRGUI,,1795825,97828548,0 GALILEO-FM3,1 38857U 12055A   14352.11831519  .00000069  00000-0  00000+0 0  9992,2 38857 055.0325 217.3566 0001474 183.4153 176.6845 01.70473530 13588
2,GENERATED VIA SPACE-TRACK.ORG API,2014-12-21T22:29:08,18 SPCS,GALILEO-FM3,2012-055A,EARTH,TEME,UTC,SGP4,2014-12-21T01:13:48.250560,1.70473543,0.0001528,55.0319,217.2745,180.5518,179.5567,0,U,38857,999,1363,0.0,8.3e-07,0,29600.372,844.705,23226.76,23217.714,PAYLOAD,LARGE,ESA,2012-10-12,FRGUI,,1797275,97853441,0 GALILEO-FM3,1 38857U 12055A   14355.05125290  .00000083  00000-0  00000+0 0  9996,2 38857 055.0319 217.2745 0001528 180.5518 179.5567 01.70473543 13635
2,GENERATED VIA SPACE-TRACK.ORG API,2014-12-29T06:29:14,18 SPCS,GALILEO-FM3,2012-055A,EARTH,TEME,UTC,SGP4,2014-12-28T02:09:54.896543,1.70473802,0.0001544,55.0308,217.078,177.7157,182.3568,0,U,38857,999,1375,0.0,5.6e-07,0,29600.342,844.704,23226.777,23217.637,PAYLOAD,LARGE,ESA,2012-10-12,FRGUI,,1801204,97922199,0 GALILEO-FM3,1 38857U 12055A   14362.09021871  .00000056  00000-0  00000+0 0  9998,2 38857 055.0308 217.0780 0001544 177.7157 182.3568 01.70473802 13759
2,GENERATED VIA SPACE-TRACK.ORG API,2014-12-30T22:30:49,18 SPCS,GALILEO-FM3,2012-055A,EARTH,TEME,UTC,SGP4,2014-12-30T10:28:38.980991,1.70473853,0.0001528,55.0303,217.0127,176.7389,183.3371,0,U,38857,999,1379,0.0,6.4e-07,0,29600.336,844.704,23226.724,23217.678,PAYLOAD,LARGE,ESA,2012-10-12,FRGUI,,1802053,97937149,0 GALILEO-FM3,1 38857U 12055A   14364.43656228  .00000064  00000-0  00000+0 0  9997,2 38857 055.0303 217.0127 0001528 176.7389 183.3371 01.70473853 13790
2,GENERATED VIA SPACE-TRACK.ORG API,2015-01-04T14:38:15,18 SPCS,GALILEO-FM3,2012-055A,EARTH,TEME,UTC,SGP4,2015-01-03T13:01:25.517279,1.70473867,0.0001502,55.0296,216.8986,176.5624,183.5177,0,U,38857,999,1386,0.0,6.4e-07,0,29600.335,844.704,23226.646,23217.754,PAYLOAD,LARGE,ESA,2012-10-12,FRGUI,,1804467,97978412,0 GALILEO-FM3,1 38857U 12055A   15003.54265645  .00000064  00000-0  00000+0 0  9999,2 38857 055.0296 216.8986 0001502 176.5624 183.5177 01.70473867 13862
2,GENERATED VIA SPACE-TRACK.ORG API,2015-01-07T22:06:09,18 SPCS,GALILEO-FM3,2012-055A,EARTH,TEME,UTC,SGP4,2015-01-06T11:24:47.619360,1.70473826,0.0001514,55.0289,216.8169,175.0192,185.0473,0,U,38857,999,1391,0.0,5.6e-07,0,29600.339,844.704,23226.686,23217.723,PAYLOAD,LARGE,ESA,2012-10-12,FRGUI,,1806464,98012084,0 GALILEO-FM3,1 38857U 12055A   15006.47555115  .00000056  00000-0  00000+0 0  9999,2 38857 055.0289 216.8169 0001514 175.0192 185.0473 01.70473826 13911
2,GENERATED VIA SPACE-TRACK.ORG API,2015-01-06T13:15:07,18 SPCS,GALILEO-FM3,2012-055A,EARTH,TEME,UTC,SGP4,2015-01-06T11:24:48.924863,1.70472311,0.0001555,55.0271,216.8172,174.9456,185.1275,0,U,38857,999,1391,0.0001,5e-08,0,29600.515,844.711,23226.983,23217.777,PAYLOAD,LARGE,ESA,2012-10-12,FRGUI,,1805899,98003997,0 GALILEO-FM3,1 38857U 12055A   15006.47556626  .00000005  00000-0  10000-3 0  9996,2 38857 055.0271 216.8172 0001555 174.9456 185.1275 01.70472311 13911
2,GENERATED VIA SPACE-TRACK.ORG API,2015-01-07T14:41:20,18 SPCS,GALILEO-FM3,2012-055A,EARTH,TEME,UTC,SGP4,2015-01-07T01:29:29.335775,1.70472307,0.0001573,55.0271,216.8008,174.4824,185.5873,0,U,38857,999,1392,0.0001,5e-08,0,29600.515,844.711,23227.036,23217.724,PAYLOAD,LARGE,ESA,2012-10-12,FRGUI,,1806263,98008397,0 GALILEO-FM3,1 38857U 12055A   15007.06214509  .00000005  00000-0  10000-3 0  9993,2 38857 055.0271 216.8008 0001573 174.4824 185.5873 01.70472307 13927
2,GENERATED VIA SPACE-TRACK.ORG API,2015-01-15T21:48:17,18 SPCS,GALILEO-FM3,2012-055A,EARTH,TEME,UTC,SGP4,2015-01-15T06:34:58.561823,1.70473489,0.0001769,55.0274,216.571,173.1951,186.8629,0,U,38857,999,1406,0.0,9.5e-07,0,29600.378,844.706,23227.48,23217.007,PAYLOAD,LARGE,ESA,2012-10-12,FRGUI,,1810999,98087706,0 GALILEO-FM3,1 38857U 12055A   15015.27428891  .00000095  00000-0  00000+0 0  9990,2 38857 055.0274 216.5710 0001769 173.1951 186.8629 01.70473489 14062
2,GENERATED VIA SPACE-TRACK.ORG API,2015-01-19T14:28:45,18 SPCS,GALILEO-FM3,2012-055A,EARTH,TEME,UTC,SGP4,2015-01-19T09:07:43.782239,1.70473537,0.0001866,55.0267,216.456,173.6769,186.3714,0,U,38857,999,1413,0.0,9.2e-07,0,29600.373,844.705,23227.761,23216.714,PAYLOAD,LARGE,ESA,2012-10-12,FRGUI,,1812923,98121967,0 GALILEO-FM3,1 38857U 12055A   15019.38036785  .00000092  00000-0  00000+0 0  9990,2 38857 055.0267 216.4560 0001866 173.6769 186.3714 01.70473537 14138
2,GENERATED VIA SPACE-TRACK.ORG API,2015-01-22T12:31:10,18 SPCS,GALILEO-FM3,2012-055A,EARTH,TEME,UTC,SGP4,2015-01-21T17:26:24.838367,1.70473628,0.0001886,55.0265,216.3905,174.9938,185.0334,0,U,38857,999,1417,0.0,7.4e-07,0,29600.362,844.705,23227.81,23216.645,PAYLOAD,LARGE,ESA,2012-10-12,FRGUI,,1814477,98146902,0 GALILEO-FM3,1 38857U 12055A   15021.72667637  .00000074  00000-0  00000+0 0  9997,2 38857 055.0265 216.3905 0001886 174.9938 185.0334 01.70473628 14171
2,GENERATED VIA SPACE-TRACK.ORG API,2015-01-25T06:27:54,18 SPCS,GALILEO-FM3,2012-055A,EARTH,TEME,UTC,SGP4,2015-01-24T15:49:47.392320,1.70473731,0.0001866,55.026,216.3089,175.3585,184.6519,0,U,38857,999,1422,0.0,6.3e-07,0,29600.35,844.704,23227.739,23216.692,PAYLOAD,LARGE,ESA,2012-10-12,FRGUI,,1815926,98172430,0 GALILEO-FM3,1 38857U 12055A   15024.65957630  .00000063  00000-0  00000+0 0  9995,2 38857 055.0260 216.3089 0001866 175.3585 184.6519 01.70473731 14221
2,GENERATED VIA SPACE-TRACK.ORG API,2015-01-28T03:36:56,18 SPCS,GALILEO-FM3,2012-055A,EARTH,TEME,UTC,SGP4,2015-01-27T14:13:12.378432,1.70473794,0.0001854,55.0254,216.2274,176.083,183.93,0,U,38857,999,1427,0.0,6.8e-07,0,29600.343,844.704,23227.696,23216.72,PAYLOAD,LARGE,ESA,2012-10-12,FRGUI,,1817598,98200165,0 GALILEO-FM3,1 38857U 12055A   15027.59250438  .00000068  00000-0  00000+0 0  9998,2 38857 055.0254 216.2274 0001854 176.0830 183.9300 01.70473794 14271
2,GENERATED VIA SPACE-TRACK.ORG API,2015-01-31T07:04:50,18 SPCS,GALILEO-FM3,2012-055A,EARTH,TEME,UTC,SGP4,2015-01-30T12:36:36.573984,1.70473803,0.0001854,55.0249,216.146,177.9341,182.0778,0,U,38857,999,1432,0.0,6.1e-07,0,29600.342,844.704,23227.695,23216.719,PAYLOAD,LARGE,ESA,2012-10-12,FRGUI,,1818999,98223633,0 GALILEO-FM3,1 38857U 12055A   15030.52542331  .00000061  00000-0  00000+0 0  9994,2 38857 055.0249 216.1460 0001854 177.9341 182.0778 01.70473803 14324
2,GENERATED VIA SPACE-TRACK.ORG API,2015-02-06T22:31:31,18 SPCS,GALILEO-FM3,2012-055A,EARTH,TEME,UTC,SGP4,2015-02-05T23:28:00.750143,1.70473605,0.0001958,55.0237,215.9665,179.1474,180.831,0,U,38857,999,1443,0.0,4.7e-07,0,29600.365,844.705,23228.026,23216.434,PAYLOAD,LARGE,ESA,2012-10-12,FRGUI,,1822435,98284357,0 GALILEO-FM3,1 38857U 12055A   15036.97778646  .00000047  00000-0  00000+0 0  9993,2 38857 055.0237 215.9665 0001958 179.1474 180.8310 01.70473605 14431
2,GENERATED VIA SPACE-TRACK.ORG API,2015-02-11T13:00:24,18 SPCS,GALILEO-FM3,2012-055A,EARTH,TEME,UTC,SGP4,2015-02-10T16:05:28.077503,1.7047343,0.0002099,55.0229,215.8356,181.1271,178.8553,0,U,38857,999,1451,0.0,6.9e-07,0,29600.385,844.706,23228.463,23216.037,PAYLOAD,LARGE,ESA,2012-10-12,FRGUI,,1824916,98324166,0 GALILEO-FM3,1 38857U 12055A   15041.67046386  .00000069  00000-0  00000+0 0  9999,2 38857 055.0229 215.8356 0002099 181.1271 178.8553 01.70473430 14514
2,GENERATED VIA SPACE-TRACK.ORG API,2015-02-19T09:28:40,18 SPCS,GALILEO-FM3,2012-055A,EARTH,TEME,UTC,SGP4,2015-02-18T07:06:16.918560,1.70473553,0.0002261,55.0212,215.6226,184.9925,174.963,0,U,38857,999,1464,0.0,4.2e-07,0,29600.371,844.705,23228.929,23215.543,PAYLOAD,LARGE,ESA,2012-10-12,FRGUI,,1828267,98374638,0 GALILEO-FM3,1 38857U 12055A   15049.29602915  .00000042  00000-0  00000+0 0  9992,2 38857 055.0212 215.6226 0002261 184.9925 174.9630 01.70473553 14641
